NORAD_CAT_ID,OBJECT_NAME,OBJECT_TYPE,EPOCH,MEAN_MOTION,ECCENTRICITY,INCLINATION,RA_OF_ASC_NODE,ARG_OF_PERICENTER,MEAN_ANOMALY,BSTAR,MEAN_MOTION_DOT,MEAN_MOTION_DDOT,TLE_LINE0,TLE_LINE1,TLE_LINE2,SEMIMAJOR_AXIS,PERIOD,APOGEE,PERIGEE,DECAYED
54011.0,STARLINK-5124,PAYLOAD,2024-01-08 14:29:06,15.08844561,0.0001119,53.216,155.5955,93.6502,266.4618,5.4448e-05,5.79e-06,0.0,0 STARLINK-5124,1 54011U 22125AZ  24008.60354528  .00000579  00000-0  54448-4 0  9990,2 54011  53.2160 155.5955 0001119  93.6502 266.4618 15.08844561 70172,6917.866,95.437,540.506,538.957,0.0
54011.0,STARLINK-5124,PAYLOAD,2024-01-08 16:04:29,15.08844869,0.0001135,53.2161,155.2981,97.5598,262.5523,7.5999e-05,9.22e-06,0.0,0 STARLINK-5124,1 54011U 22125AZ  24008.66978439  .00000922  00000-0  75999-4 0  9995,2 54011  53.2161 155.2981 0001135  97.5598 262.5523 15.08844869 70189,6917.866,95.437,540.516,538.945,0.0
54011.0,STARLINK-5124,PAYLOAD,2024-01-09 07:58:20,15.08842898,0.0001201,53.2163,152.3252,77.3559,282.7567,6.6298e-05,7.68e-06,0.0,0 STARLINK-5124,1 54011U 22125AZ  24009.33218648  .00000768  00000-0  66298-4 0  9999,2 54011  53.2163 152.3252 0001201  77.3559 282.7567 15.08842898 70336,6917.872,95.437,540.567,538.906,0.0
54011.0,STARLINK-5124,PAYLOAD,2024-01-09 14:19:53,15.08844032,0.0001207,53.2164,151.1356,77.2148,282.8979,6.8782e-05,8.07e-06,0.0,0 STARLINK-5124,1 54011U 22125AZ  24009.59714541  .00000807  00000-0  68782-4 0  9994,2 54011  53.2164 151.1356 0001207  77.2148 282.8979 15.08844032 70327,6917.868,95.437,540.568,538.898,0.0
54011.0,STARLINK-5124,PAYLOAD,2024-01-09 19:06:02,15.08847282,0.000121,53.2165,150.2431,78.5215,281.5913,8.8854e-05,1.127e-05,0.0,0 STARLINK-5124,1 54011U 22125AZ  24009.79586209  .00001127  00000-0  88854-4 0  9992,2 54011  53.2165 150.2431 0001210  78.5215 281.5913 15.08847282 70352,6917.858,95.437,540.56,538.886,0.0
54011.0,STARLINK-5124,PAYLOAD,2024-01-10 09:24:31,15.08840765,0.0001415,53.2182,147.5618,100.6987,259.4165,-2.8162e-05,-7.36e-06,0.0,0 STARLINK-5124,1 54011U 22125AZ  24010.39202934 -.00000736  00000-0 -28162-4 0  9993,2 54011  53.2182 147.5618 0001415 100.6987 259.4165 15.08840765 70494,6917.878,95.438,540.722,538.764,0.0
54011.0,STARLINK-5124,PAYLOAD,2024-01-11 12:26:04,15.0883955,0.0001228,53.2163,142.5112,82.0721,278.0411,4.0454e-05,3.56e-06,0.0,0 STARLINK-5124,1 54011U 22125AZ  24011.51811059  .00000356  00000-0  40454-4 0  9996,2 54011  53.2163 142.5112 0001228  82.0721 278.0411 15.08839550 70668,6917.882,95.438,540.596,538.897,0.0
54011.0,STARLINK-5124,PAYLOAD,2024-01-11 14:01:27,15.08840803,0.0001304,53.2161,142.2137,101.4805,258.6334,7.8094e-05,9.55e-06,0.0,0 STARLINK-5124,1 54011U 22125AZ  24011.58434849  .00000955  00000-0  78094-4 0  9997,2 54011  53.2161 142.2137 0001304 101.4805 258.6334 15.08840803 70621,6917.878,95.438,540.645,538.841,0.0
54011.0,STARLINK-5124,PAYLOAD,2024-01-11 17:12:13,15.08845102,0.0001226,53.2166,141.6204,81.8418,278.2713,0.00010675,1.412e-05,0.0,0 STARLINK-5124,1 54011U 22125AZ  24011.71682606  .00001412  00000-0  10675-3 0  9997,2 54011  53.2166 141.6204 0001226  81.8418 278.2713 15.08845102 70646,6917.865,95.437,540.578,538.882,0.0
54011.0,STARLINK-5124,PAYLOAD,2024-01-12 12:16:52,15.08836045,0.0001276,53.2164,138.0512,94.7845,265.3293,6.3332e-05,7.2e-06,0.0,0 STARLINK-5124,1 54011U 22125AZ  24012.51171470  .00000720  00000-0  63332-4 0  9998,2 54011  53.2164 138.0512 0001276  94.7845 265.3293 15.08836045 70813,6917.892,95.438,540.64,538.875,0.0
54011.0,STARLINK-5124,PAYLOAD,2024-01-12 13:52:15,15.08839472,0.0001277,53.2162,137.754,94.2304,265.8834,9.3852e-05,1.206e-05,0.0,0 STARLINK-5124,1 54011U 22125AZ  24012.57795206  .00001206  00000-0  93852-4 0  9993,2 54011  53.2162 137.7540 0001277  94.2304 265.8834 15.08839472 70772,6917.882,95.438,540.63,538.864,0.0
54011.0,STARLINK-5124,PAYLOAD,2024-01-12 15:27:38,15.08842189,0.0001244,53.2163,137.4574,90.8415,269.272,0.00013183,1.811e-05,0.0,0 STARLINK-5124,1 54011U 22125AZ  24012.64419001  .00001811  00000-0  13183-3 0  9997,2 54011  53.2163 137.4574 0001244  90.8415 269.2720 15.08842189 70834,6917.874,95.437,540.599,538.878,0.0
54011.0,STARLINK-5124,PAYLOAD,2024-01-13 12:07:39,15.08839031,0.0001372,53.2159,133.5897,101.7896,258.325,3.939e-05,3.39e-06,0.0,0 STARLINK-5124,1 54011U 22125AZ  24013.50531601  .00000339  00000-0  39390-4 0  9997,2 54011  53.2159 133.5897 0001372 101.7896 258.3250 15.08839031 70964,6917.883,95.438,540.697,538.799,0.0
54011.0,STARLINK-5124,PAYLOAD,2024-01-13 13:43:02,15.08839929,0.000133,53.2162,133.2932,91.4921,268.6223,5.1794e-05,5.36e-06,0.0,0 STARLINK-5124,1 54011U 22125AZ  24013.57155622  .00000536  00000-0  51794-4 0  9990,2 54011  53.2162 133.2932 0001330  91.4921 268.6223 15.08839929 70929,6917.881,95.438,540.666,538.826,0.0
54011.0,STARLINK-5124,PAYLOAD,2024-01-13 16:53:48,15.08845299,0.0001369,53.2167,132.698,87.6539,272.461,8.3758e-05,1.046e-05,0.0,0 STARLINK-5124,1 54011U 22125AZ  24013.70403208  .00001046  00000-0  83758-4 0  9993,2 54011  53.2167 132.6980 0001369  87.6539 272.4610 15.08845299 70991,6917.864,95.437,540.676,538.782,0.0
54011.0,STARLINK-5124,PAYLOAD,2024-01-14 11:58:26,15.0882787,0.0001394,53.2168,129.1296,85.5259,274.5892,-0.00011358,-2.094e-05,0.0,0 STARLINK-5124,1 54011U 22125AZ  24014.49891972 -.00002094  00000-0 -11358-3 0  9991,2 54011  53.2168 129.1296 0001394  85.5259 274.5892 15.08827870 71112,6917.917,95.438,540.747,538.818,0.0
54011.0,STARLINK-5124,PAYLOAD,2024-01-14 13:33:49,15.08827075,0.0001395,53.2168,128.8327,82.9412,277.1739,-0.00011034,-2.043e-05,0.0,0 STARLINK-5124,1 54011U 22125AZ  24014.56516058 -.00002043  00000-0 -11034-3 0  9993,2 54011  53.2168 128.8327 0001395  82.9412 277.1739 15.08827075 71077,6917.92,95.438,540.75,538.82,0.0
54011.0,STARLINK-5124,PAYLOAD,2024-01-14 16:44:35,15.08830054,0.0001353,53.2168,128.2369,100.6128,259.5017,-9.3897e-05,-1.782e-05,0.0,0 STARLINK-5124,1 54011U 22125AZ  24014.69763755 -.00001782  00000-0 -93897-4 0  9992,2 54011  53.2168 128.2369 0001353 100.6128 259.5017 15.08830054 71099,6917.911,95.438,540.712,538.84,0.0
54011.0,STARLINK-5124,PAYLOAD,2024-01-15 11:49:13,15.0883868,0.0001246,53.2159,124.6717,90.6951,269.4184,1.4018e-05,-6.5e-07,0.0,0 STARLINK-5124,1 54011U 22125AZ  24015.49251599 -.00000065  00000-0  14018-4 0  9999,2 54011  53.2159 124.6717 0001246  90.6951 269.4184 15.08838680 71266,6917.884,95.438,540.611,538.887,0.0
54011.0,STARLINK-5124,PAYLOAD,2024-01-15 13:24:36,15.08839317,0.000132,53.2151,124.3759,83.5499,276.5643,4.8589e-05,4.85e-06,0.0,0 STARLINK-5124,1 54011U 22125AZ  24015.55875446  .00000485  00000-0  48589-4 0  9994,2 54011  53.2151 124.3759 0001320  83.5499 276.5643 15.08839317 71225,6917.882,95.438,540.661,538.834,0.0
54011.0,STARLINK-5124,PAYLOAD,2024-01-16 11:40:00,15.0881771,0.0001825,53.2157,120.213,56.5693,303.5474,0.00027423,4.076e-05,0.0,0 STARLINK-5124,1 54011U 22125AZ  24016.48612139  .00004076  00000-0  27423-3 0  9998,2 54011  53.2157 120.2130 0001825  56.5693 303.5474 15.08817710 71412,6917.949,95.439,541.076,538.551,0.0
54011.0,STARLINK-5124,PAYLOAD,2024-01-16 13:15:23,15.08828211,0.0001658,53.2173,119.9126,78.6854,281.4325,0.00021041,3.061e-05,0.0,0 STARLINK-5124,1 54011U 22125AZ  24016.55235627  .00003061  00000-0  21041-3 0  9992,2 54011  53.2173 119.9126 0001658  78.6854 281.4325 15.08828211 71370,6917.916,95.438,540.928,538.634,0.0
54011.0,STARLINK-5124,PAYLOAD,2024-01-16 16:26:09,15.08832906,0.0001503,53.2174,119.3161,104.2894,255.8266,0.00022989,3.372e-05,0.0,0 STARLINK-5124,1 54011U 22125AZ  24016.68483278  .00003372  00000-0  22989-3 0  9990,2 54011  53.2174 119.3161 0001503 104.2894 255.8266 15.08832906 71446,6917.902,95.438,540.807,538.727,0.0
54011.0,STARLINK-5124,PAYLOAD,2024-01-17 13:06:10,15.08844482,0.0001601,53.219,115.446,134.1637,225.9487,-7.2831e-05,-1.447e-05,0.0,0 STARLINK-5124,1 54011U 22125AZ  24017.54595709 -.00001447  00000-0 -72831-4 0  9994,2 54011  53.2190 115.4460 0001601 134.1637 225.9487 15.08844482 71523,6917.867,95.437,540.839,538.624,0.0
54011.0,STARLINK-5124,PAYLOAD,2024-01-18 11:21:34,15.08841926,0.0001056,53.2166,111.2891,90.7128,269.3985,9.0124e-05,1.147e-05,0.0,0 STARLINK-5124,1 54011U 22125AZ  24018.47331951  .00001147  00000-0  90124-4 0  9994,2 54011  53.2166 111.2891 0001056  90.7128 269.3985 15.08841926 71710,6917.875,95.437,540.47,539.009,0.0
54011.0,STARLINK-5124,PAYLOAD,2024-01-19 11:12:21,15.0884759,0.0001073,53.2167,106.83,87.0217,273.0898,0.00011359,1.521e-05,0.0,0 STARLINK-5124,1 54011U 22125AZ  24019.46691635  .00001521  00000-0  11359-3 0  9990,2 54011  53.2167 106.8300 0001073  87.0217 273.0898 15.08847590 71812,6917.857,95.437,540.464,538.98,0.0
54011.0,STARLINK-5124,PAYLOAD,2024-01-20 11:03:09,15.08842213,0.0001177,53.217,102.3681,85.4514,274.6613,-3.0283e-05,-7.7e-06,0.0,0 STARLINK-5124,1 54011U 22125AZ  24020.46052364 -.00000770  00000-0 -30283-4 0  9997,2 54011  53.2170 102.3681 0001177  85.4514 274.6613 15.08842213 72018,6917.874,95.437,540.553,538.924,0.0
54011.0,STARLINK-5124,PAYLOAD,2024-01-20 23:46:14,15.08838546,0.0001327,53.2163,99.9888,107.2134,252.9004,-2.4953e-05,-6.85e-06,0.0,0 STARLINK-5124,1 54011U 22125AZ  24020.99044665 -.00000685  00000-0 -24953-4 0  9992,2 54011  53.2163  99.9888 0001327 107.2134 252.9004 15.08838546 72048,6917.885,95.438,540.668,538.832,0.0
54011.0,STARLINK-5124,PAYLOAD,2024-01-21 12:29:18,15.0885101,0.00013,53.2164,97.6112,91.2005,268.9136,1.8523e-06,-2.58e-06,0.0,0 STARLINK-5124,1 54011U 22125AZ  24021.52035797 -.00000258  00000-0  18523-5 0  9990,2 54011  53.2164  97.6112 0001300  91.2005 268.9136 15.08851010 72172,6917.847,95.437,540.611,538.812,0.0
54011.0,STARLINK-5124,PAYLOAD,2024-01-21 14:04:42,15.08847255,0.0001347,53.216,97.3128,97.2218,262.8928,0.00010672,1.411e-05,0.0,0 STARLINK-5124,1 54011U 22125AZ  24021.58659817  .00001411  00000-0  10672-3 0  9997,2 54011  53.2160  97.3128 0001347  97.2218 262.8928 15.08847255 72139,6917.858,95.437,540.655,538.791,0.0
